COSMOS 2251 DEB         
1 34792U 93036AAV 26063.83042485  .00006752  00000+0  15124-2 0  9991
2 34792  74.0204  13.7951 0009561  94.8263 293.8064 14.56797029888458
COSMOS 2251 DEB         
1 34793U 93036AAW 26063.51398593  .00000930  00000+0  30629-3 0  9991
2 34793  74.0006  99.2739 0052748 236.0573 276.0188 14.38793649885069
COSMOS 2251 DEB         
1 34796U 93036AAZ 26063.75165522  .00002477  00000+0  61883-3 0  9998
2 34796  74.0284  62.5130 0097773 146.2651  31.2996 14.49214090892150
COSMOS 2251 DEB         
1 34797U 93036ABA 26063.04106670  .00006583  00000+0  18808-2 0  9990
2 34797  73.9778 308.3817 0069681  42.5177 318.1346 14.43877751885889
COSMOS 2251 DEB         
1 34813U 93036ABC 26061.87970570  .00006905  00000+0  59140-2 0  9998
2 34813  73.9354   4.2405 0436646  22.8061 339.1800 13.50834009827379
COSMOS 2251 DEB         
1 34814U 93036ABD 26061.75705623  .00002376  00000+0  79241-3 0  9994
2 34814  73.8958 177.0044 0053550  46.1339 103.9667 14.37292460884829
COSMOS 2251 DEB         
1 34815U 93036ABE 26063.15540913  .00008370  00000+0  10920-2 0  9998
2 34815  74.0426  81.7706 0053782 132.9417 227.6290 14.79636040898314
COSMOS 2251 DEB         
1 34816U 93036ABF 26063.83822373  .00001649  00000+0  14610-2 0  9999
2 34816  73.8909   9.1527 0370509  58.7465 334.0509 13.58524814838984
COSMOS 2251 DEB         
1 34818U 93036ABH 26062.21143240  .00000730  00000+0  25384-3 0  9992
2 34818  74.0362 148.9652 0025130 211.6391 178.0916 14.37089243885269
COSMOS 2251 DEB         
1 34819U 93036ABJ 26062.83054461  .00010086  00000+0  18672-2 0  9993
2 34819  74.0210 346.5894 0012938  60.7194 356.3236 14.65369807894165
COSMOS 2251 DEB         
1 34823U 93036ABN 26063.68552840  .00002960  00000+0  58835-3 0  9994
2 34823  74.0413 307.0999 0153080  10.3211 350.1032 14.55378175895735
COSMOS 2251 DEB         
1 34845U 93036ABP 26062.13683818  .00001088  00000+0  31184-3 0  9995
2 34845  74.0273 358.2592 0021056 144.6861 215.5697 14.46047440886288
COSMOS 2251 DEB         
1 34846U 93036ABQ 26063.51419671  .00002811  00000+0  76465-3 0  9999
2 34846  74.0288 108.7839 0024260 164.6613 195.5287 14.47780560885878
COSMOS 2251 DEB         
1 34852U 93036ABW 26063.46975764  .00000432  00000+0  15413-3 0  9993
2 34852  74.0313 112.6560 0016990 204.8402 155.1935 14.37076409887089
COSMOS 2251 DEB         
1 34854U 93036ABY 26062.15256636  .00005977  00000+0  81478-3 0  9993
2 34854  74.0315   0.8333 0062459  92.4538 268.3790 14.77533146730691
COSMOS 2251 DEB         
1 34856U 93036ACA 26063.01626520  .00038791  00000+0  22888-2 0  9993
2 34856  73.9911 277.0632 0029572  32.7597 119.9119 15.10989896903372
