[{"OBJECT_NAME":"COSMOS 2251 DEB","OBJECT_ID":"1993-036AAV","EPOCH":"2026-03-04T19:55:48.707040","MEAN_MOTION":14.56797029,"ECCENTRICITY":0.0009561,"INCLINATION":74.0204,"RA_OF_ASC_NODE":13.7951,"ARG_OF_PERICENTER":94.8263,"MEAN_ANOMALY":293.8064,"EPHEMERIS_TYPE":0,"CLASSIFICATION_TYPE":"U","NORAD_CAT_ID":34792,"ELEMENT_SET_NO":999,"REV_AT_EPOCH":88845,"BSTAR":0.0015124,"MEAN_MOTION_DOT":6.752e-5,"MEAN_MOTION_DDOT":0},{"OBJECT_NAME":"COSMOS 2251 DEB","OBJECT_ID":"1993-036AAW","EPOCH":"2026-03-04T12:20:08.384352","MEAN_MOTION":14.38793649,"ECCENTRICITY":0.00527484,"INCLINATION":74.0006,"RA_OF_ASC_NODE":99.2739,"ARG_OF_PERICENTER":236.0573,"MEAN_ANOMALY":276.0188,"EPHEMERIS_TYPE":0,"CLASSIFICATION_TYPE":"U","NORAD_CAT_ID":34793,"ELEMENT_SET_NO":999,"REV_AT_EPOCH":88506,"BSTAR":0.00030628913,"MEAN_MOTION_DOT":9.3e-6,"MEAN_MOTION_DDOT":0},{"OBJECT_NAME":"COSMOS 2251 DEB","OBJECT_ID":"1993-036AAZ","EPOCH":"2026-03-04T18:02:23.011008","MEAN_MOTION":14.4921409,"ECCENTRICITY":0.0097773,"INCLINATION":74.0284,"RA_OF_ASC_NODE":62.513,"ARG_OF_PERICENTER":146.2651,"MEAN_ANOMALY":31.2996,"EPHEMERIS_TYPE":0,"CLASSIFICATION_TYPE":"U","NORAD_CAT_ID":34796,"ELEMENT_SET_NO":999,"REV_AT_EPOCH":89215,"BSTAR":0.00061883,"MEAN_MOTION_DOT":2.477e-5,"MEAN_MOTION_DDOT":0},{"OBJECT_NAME":"COSMOS 2251 DEB","OBJECT_ID":"1993-036ABA","EPOCH":"2026-03-04T00:59:08.162880","MEAN_MOTION":14.43877751,"ECCENTRICITY":0.00696813,"INCLINATION":73.9778,"RA_OF_ASC_NODE":308.3817,"ARG_OF_PERICENTER":42.5177,"MEAN_ANOMALY":318.1346,"EPHEMERIS_TYPE":0,"CLASSIFICATION_TYPE":"U","NORAD_CAT_ID":34797,"ELEMENT_SET_NO":999,"REV_AT_EPOCH":88588,"BSTAR":0.0018808304,"MEAN_MOTION_DOT":6.583e-5,"MEAN_MOTION_DDOT":0},{"OBJECT_NAME":"COSMOS 2251 DEB","OBJECT_ID":"1993-036ABC","EPOCH":"2026-03-02T21:06:46.572480","MEAN_MOTION":13.50834009,"ECCENTRICITY":0.0436646,"INCLINATION":73.9354,"RA_OF_ASC_NODE":4.2405,"ARG_OF_PERICENTER":22.8061,"MEAN_ANOMALY":339.18,"EPHEMERIS_TYPE":0,"CLASSIFICATION_TYPE":"U","NORAD_CAT_ID":34813,"ELEMENT_SET_NO":999,"REV_AT_EPOCH":82737,"BSTAR":0.005914,"MEAN_MOTION_DOT":6.905e-5,"MEAN_MOTION_DDOT":0},{"OBJECT_NAME":"COSMOS 2251 DEB","OBJECT_ID":"1993-036ABD","EPOCH":"2026-03-02T18:10:09.658272","MEAN_MOTION":14.3729246,"ECCENTRICITY":0.005355,"INCLINATION":73.8958,"RA_OF_ASC_NODE":177.0044,"ARG_OF_PERICENTER":46.1339,"MEAN_ANOMALY":103.9667,"EPHEMERIS_TYPE":0,"CLASSIFICATION_TYPE":"U","NORAD_CAT_ID":34814,"ELEMENT_SET_NO":999,"REV_AT_EPOCH":88482,"BSTAR":0.00079241494,"MEAN_MOTION_DOT":2.376e-5,"MEAN_MOTION_DDOT":0},{"OBJECT_NAME":"COSMOS 2251 DEB","OBJECT_ID":"1993-036ABE","EPOCH":"2026-03-04T03:43:47.348832","MEAN_MOTION":14.7963604,"ECCENTRICITY":0.00537827,"INCLINATION":74.0426,"RA_OF_ASC_NODE":81.7706,"ARG_OF_PERICENTER":132.9417,"MEAN_ANOMALY":227.629,"EPHEMERIS_TYPE":0,"CLASSIFICATION_TYPE":"U","NORAD_CAT_ID":34815,"ELEMENT_SET_NO":999,"REV_AT_EPOCH":89831,"BSTAR":0.0010920239,"MEAN_MOTION_DOT":8.37e-5,"MEAN_MOTION_DDOT":0},{"OBJECT_NAME":"COSMOS 2251 DEB","OBJECT_ID":"1993-036ABF","EPOCH":"2026-03-04T20:07:02.530272","MEAN_MOTION":13.58524814,"ECCENTRICITY":0.0370509,"INCLINATION":73.8909,"RA_OF_ASC_NODE":9.1527,"ARG_OF_PERICENTER":58.7465,"MEAN_ANOMALY":334.0509,"EPHEMERIS_TYPE":0,"CLASSIFICATION_TYPE":"U","NORAD_CAT_ID":34816,"ELEMENT_SET_NO":999,"REV_AT_EPOCH":83898,"BSTAR":0.001461,"MEAN_MOTION_DOT":1.649e-5,"MEAN_MOTION_DDOT":0},{"OBJECT_NAME":"COSMOS 2251 DEB","OBJECT_ID":"1993-036ABH","EPOCH":"2026-03-03T05:04:27.759360","MEAN_MOTION":14.37089243,"ECCENTRICITY":0.00251304,"INCLINATION":74.0362,"RA_OF_ASC_NODE":148.9652,"ARG_OF_PERICENTER":211.6391,"MEAN_ANOMALY":178.0916,"EPHEMERIS_TYPE":0,"CLASSIFICATION_TYPE":"U","NORAD_CAT_ID":34818,"ELEMENT_SET_NO":999,"REV_AT_EPOCH":88526,"BSTAR":0.00025384051,"MEAN_MOTION_DOT":7.3e-6,"MEAN_MOTION_DDOT":0},{"OBJECT_NAME":"COSMOS 2251 DEB","OBJECT_ID":"1993-036ABJ","EPOCH":"2026-03-03T19:55:59.054304","MEAN_MOTION":14.65369807,"ECCENTRICITY":0.0012938,"INCLINATION":74.021,"RA_OF_ASC_NODE":346.5894,"ARG_OF_PERICENTER":60.7194,"MEAN_ANOMALY":356.3236,"EPHEMERIS_TYPE":0,"CLASSIFICATION_TYPE":"U","NORAD_CAT_ID":34819,"ELEMENT_SET_NO":999,"REV_AT_EPOCH":89416,"BSTAR":0.0018672,"MEAN_MOTION_DOT":0.00010086,"MEAN_MOTION_DDOT":0},{"OBJECT_NAME":"COSMOS 2251 DEB","OBJECT_ID":"1993-036ABN","EPOCH":"2026-03-04T16:27:09.653760","MEAN_MOTION":14.55378175,"ECCENTRICITY":0.015308,"INCLINATION":74.0413,"RA_OF_ASC_NODE":307.0999,"ARG_OF_PERICENTER":10.3211,"MEAN_ANOMALY":350.1032,"EPHEMERIS_TYPE":0,"CLASSIFICATION_TYPE":"U","NORAD_CAT_ID":34823,"ELEMENT_SET_NO":999,"REV_AT_EPOCH":89573,"BSTAR":0.00058835,"MEAN_MOTION_DOT":2.96e-5,"MEAN_MOTION_DDOT":0},{"OBJECT_NAME":"COSMOS 2251 DEB","OBJECT_ID":"1993-036ABP","EPOCH":"2026-03-03T03:17:02.818752","MEAN_MOTION":14.4604744,"ECCENTRICITY":0.0021056,"INCLINATION":74.0273,"RA_OF_ASC_NODE":358.2592,"ARG_OF_PERICENTER":144.6861,"MEAN_ANOMALY":215.5697,"EPHEMERIS_TYPE":0,"CLASSIFICATION_TYPE":"U","NORAD_CAT_ID":34845,"ELEMENT_SET_NO":999,"REV_AT_EPOCH":88628,"BSTAR":0.00031184096,"MEAN_MOTION_DOT":1.088e-5,"MEAN_MOTION_DDOT":0},{"OBJECT_NAME":"COSMOS 2251 DEB","OBJECT_ID":"1993-036ABQ","EPOCH":"2026-03-04T12:20:26.595744","MEAN_MOTION":14.4778056,"ECCENTRICITY":0.002426,"INCLINATION":74.0288,"RA_OF_ASC_NODE":108.7839,"ARG_OF_PERICENTER":164.6613,"MEAN_ANOMALY":195.5287,"EPHEMERIS_TYPE":0,"CLASSIFICATION_TYPE":"U","NORAD_CAT_ID":34846,"ELEMENT_SET_NO":999,"REV_AT_EPOCH":88587,"BSTAR":0.00076465,"MEAN_MOTION_DOT":2.811e-5,"MEAN_MOTION_DDOT":0},{"OBJECT_NAME":"COSMOS 2251 DEB","OBJECT_ID":"1993-036ABW","EPOCH":"2026-03-04T11:16:27.060096","MEAN_MOTION":14.37076409,"ECCENTRICITY":0.00169909,"INCLINATION":74.0313,"RA_OF_ASC_NODE":112.656,"ARG_OF_PERICENTER":204.8402,"MEAN_ANOMALY":155.1935,"EPHEMERIS_TYPE":0,"CLASSIFICATION_TYPE":"U","NORAD_CAT_ID":34852,"ELEMENT_SET_NO":999,"REV_AT_EPOCH":88708,"BSTAR":0.00015413436,"MEAN_MOTION_DOT":4.32e-6,"MEAN_MOTION_DDOT":0},{"OBJECT_NAME":"COSMOS 2251 DEB","OBJECT_ID":"1993-036ABY","EPOCH":"2026-03-03T03:39:41.733504","MEAN_MOTION":14.77533146,"ECCENTRICITY":0.00624595,"INCLINATION":74.0315,"RA_OF_ASC_NODE":0.8333,"ARG_OF_PERICENTER":92.4538,"MEAN_ANOMALY":268.379,"EPHEMERIS_TYPE":0,"CLASSIFICATION_TYPE":"U","NORAD_CAT_ID":34854,"ELEMENT_SET_NO":999,"REV_AT_EPOCH":73069,"BSTAR":0.00081477818,"MEAN_MOTION_DOT":5.977e-5,"MEAN_MOTION_DDOT":0},{"OBJECT_NAME":"COSMOS 2251 DEB","OBJECT_ID":"1993-036ACA","EPOCH":"2026-03-04T00:23:25.313280","MEAN_MOTION":15.10989896,"ECCENTRICITY":0.00295721,"INCLINATION":73.9911,"RA_OF_ASC_NODE":277.0632,"ARG_OF_PERICENTER":32.7597,"MEAN_ANOMALY":119.9119,"EPHEMERIS_TYPE":0,"CLASSIFICATION_TYPE":"U","NORAD_CAT_ID":34856,"ELEMENT_SET_NO":999,"REV_AT_EPOCH":90337,"BSTAR":0.0022887841,"MEAN_MOTION_DOT":0.00038791,"MEAN_MOTION_DDOT":0}]
